NORAD_CAT_ID,OBJECT_NAME,OBJECT_TYPE,EPOCH,MEAN_MOTION,ECCENTRICITY,INCLINATION,RA_OF_ASC_NODE,ARG_OF_PERICENTER,MEAN_ANOMALY,BSTAR,MEAN_MOTION_DOT,MEAN_MOTION_DDOT,TLE_LINE0,TLE_LINE1,TLE_LINE2,SEMIMAJOR_AXIS,PERIOD,APOGEE,PERIGEE,DECAYED
52275.0,STARLINK-3784,PAYLOAD,2023-11-23 19:19:48,15.08833629,0.0001442,53.2162,266.0382,101.7455,258.3699,1.7246e-05,-1.4e-07,0.0,0 STARLINK-3784,1 52275U 22041Q   23327.80541941 -.00000014  00000-0  17246-4 0  9999,2 52275  53.2162 266.0382 0001442 101.7455 258.3699 15.08833629 89232,6917.9,95.438,540.762,538.767,0.0
52275.0,STARLINK-3784,PAYLOAD,2023-11-24 03:16:43,15.08841107,0.000145,53.2174,264.5564,79.0338,281.0818,0.00011198,1.495e-05,0.0,0 STARLINK-3784,1 52275U 22041Q   23328.13661708  .00001495  00000-0  11198-3 0  9992,2 52275  53.2174 264.5564 0001450  79.0338 281.0818 15.08841107 88073,6917.877,95.437,540.745,538.739,0.0
52275.0,STARLINK-3784,PAYLOAD,2023-11-25 03:07:31,15.08838708,0.0001906,53.2189,260.0962,74.9228,285.1975,9.7997e-05,1.272e-05,0.0,0 STARLINK-3784,1 52275U 22041Q   23329.13022344  .00001272  00000-0  97997-4 0  9995,2 52275  53.2189 260.0962 0001906  74.9228 285.1975 15.08838708 89433,6917.884,95.438,541.068,538.431,0.0
52275.0,STARLINK-3784,PAYLOAD,2023-11-25 19:01:22,15.08840976,0.0002353,53.219,257.1258,70.866,289.2587,0.00012588,1.716e-05,0.0,0 STARLINK-3784,1 52275U 22041Q   23329.79262442  .00001716  00000-0  12588-3 0  9997,2 52275  53.2190 257.1258 0002353  70.8660 289.2587 15.08840976 88323,6917.877,95.437,541.37,538.115,0.0
52275.0,STARLINK-3784,PAYLOAD,2023-11-26 02:58:17,15.0886402,0.0002113,53.217,255.6337,59.8726,300.2475,0.00042342,6.461e-05,0.0,0 STARLINK-3784,1 52275U 22041Q   23330.12381299  .00006461  00000-0  42342-3 0  9991,2 52275  53.2170 255.6337 0002113  59.8726 300.2475 15.08864020 89581,6917.807,95.436,541.134,538.21,0.0
52275.0,STARLINK-3784,PAYLOAD,2023-11-26 18:52:10,15.08828599,0.0001862,53.2177,252.6655,76.515,283.605,-0.00011799,-2.165e-05,0.0,0 STARLINK-3784,1 52275U 22041Q   23330.78623234 -.00002165  00000-0 -11799-3 0  9992,2 52275  53.2177 252.6655 0001862  76.5150 283.6050 15.08828599 89680,6917.915,95.438,541.068,538.492,0.0
52275.0,STARLINK-3784,PAYLOAD,2023-11-27 01:13:43,15.08826282,0.0001611,53.2178,251.4679,100.4134,259.704,-0.00010726,-1.994e-05,0.0,0 STARLINK-3784,1 52275U 22041Q   23331.05120073 -.00001994  00000-0 -10726-3 0  9994,2 52275  53.2178 251.4679 0001611 100.4134 259.7040 15.08826282 89720,6917.922,95.438,540.902,538.673,0.0
52275.0,STARLINK-3784,PAYLOAD,2023-11-27 18:42:57,15.08847777,0.0001581,53.2174,248.1981,96.6963,263.4209,-0.00010385,-1.941e-05,0.0,0 STARLINK-3784,1 52275U 22041Q   23331.77983097 -.00001941  00000-0 -10385-3 0  9999,2 52275  53.2174 248.1981 0001581  96.6963 263.4209 15.08847777 89830,6917.857,95.437,540.815,538.628,0.0
52275.0,STARLINK-3784,PAYLOAD,2023-11-27 21:53:42,15.08868638,0.0001803,53.2176,247.6032,105.2612,254.8579,7.4736e-05,9.02e-06,0.0,0 STARLINK-3784,1 52275U 22041Q   23331.91229270  .00000902  00000-0  74736-4 0  9996,2 52275  53.2176 247.6032 0001803 105.2612 254.8579 15.08868638 88649,6917.793,95.436,540.905,538.411,0.0
52275.0,STARLINK-3784,PAYLOAD,2023-11-28 01:04:28,15.08870243,0.0001613,53.2172,247.008,103.805,256.3122,9.5918e-05,1.24e-05,0.0,0 STARLINK-3784,1 52275U 22041Q   23332.04476938  .00001240  00000-0  95918-4 0  9997,2 52275  53.2172 247.0080 0001613 103.8050 256.3122 15.08870243 89873,6917.788,95.436,540.769,538.537,0.0
52275.0,STARLINK-3784,PAYLOAD,2023-11-28 21:44:30,15.0883647,0.000222,53.2181,243.1377,137.4006,222.7159,0.00019776,2.86e-05,0.0,0 STARLINK-3784,1 52275U 22041Q   23332.90590751  .00002860  00000-0  19776-3 0  9998,2 52275  53.2181 243.1377 0002220 137.4006 222.7159 15.08836470 88799,6917.891,95.438,541.292,538.22,0.0
52275.0,STARLINK-3784,PAYLOAD,2023-11-28 23:19:53,15.08835225,0.0001791,53.2172,242.8438,123.5929,236.5235,0.00022333,3.268e-05,0.0,0 STARLINK-3784,1 52275U 22041Q   23332.97214959  .00003268  00000-0  22333-3 0  9994,2 52275  53.2172 242.8438 0001791 123.5929 236.5235 15.08835225 90018,6917.895,95.438,540.999,538.521,0.0
52275.0,STARLINK-3784,PAYLOAD,2023-11-30 23:01:28,15.0883216,0.0001868,53.218,233.9325,123.0117,237.1055,3.6817e-05,2.98e-06,0.0,0 STARLINK-3784,1 52275U 22041Q   23334.95935888  .00000298  00000-0  36817-4 0  9998,2 52275  53.2180 233.9325 0001868 123.0117 237.1055 15.08832160 90317,6917.904,95.438,541.062,538.477,0.0
52275.0,STARLINK-3784,PAYLOAD,2023-12-01 22:52:13,15.08865138,0.0001357,53.2165,229.4631,89.6152,270.4995,0.00021676,3.166e-05,0.0,0 STARLINK-3784,1 52275U 22041Q   23335.95293602  .00003166  00000-0  21676-3 0  9993,2 52275  53.2165 229.4631 0001357  89.6152 270.4995 15.08865138 89254,6917.804,95.436,540.607,538.73,0.0
52275.0,STARLINK-3784,PAYLOAD,2023-12-02 00:27:37,15.08860357,0.000151,53.2166,229.1698,71.897,288.2186,0.00029482,4.41e-05,0.0,0 STARLINK-3784,1 52275U 22041Q   23336.01917872  .00004410  00000-0  29482-3 0  9999,2 52275  53.2166 229.1698 0001510  71.8970 288.2186 15.08860357 90470,6917.818,95.436,540.728,538.639,0.0
52275.0,STARLINK-3784,PAYLOAD,2023-12-02 03:38:22,15.0887329,0.0001293,53.2163,228.5707,96.0084,264.1055,0.00030051,4.502e-05,0.0,0 STARLINK-3784,1 52275U 22041Q   23336.15164646  .00004502  00000-0  30051-3 0  9993,2 52275  53.2163 228.5707 0001293  96.0084 264.1055 15.08873290 90494,6917.779,95.435,540.538,538.749,0.0
52275.0,STARLINK-3784,PAYLOAD,2023-12-02 22:43:03,15.08828429,0.0001195,53.2165,225.0038,81.8841,278.2287,-6.9789e-05,-1.398e-05,0.0,0 STARLINK-3784,1 52275U 22041Q   23336.94656601 -.00001398  00000-0 -69789-4 0  9990,2 52275  53.2165 225.0038 0001195  81.8841 278.2287 15.08828429 89405,6917.916,95.438,540.607,538.954,0.0
52275.0,STARLINK-3784,PAYLOAD,2023-12-03 01:53:49,15.0882965,0.0001263,53.2169,224.4093,75.5129,284.6003,-5.4264e-05,-1.151e-05,0.0,0 STARLINK-3784,1 52275U 22041Q   23337.07904605 -.00001151  00000-0 -54264-4 0  9994,2 52275  53.2169 224.4093 0001263  75.5129 284.6003 15.08829650 90639,6917.912,95.438,540.651,538.903,0.0
52275.0,STARLINK-3784,PAYLOAD,2023-12-04 00:09:13,15.08844088,0.0001361,53.2159,220.248,69.8532,290.2607,-0.00013579,-2.449e-05,0.0,0 STARLINK-3784,1 52275U 22041Q   23338.00640455 -.00002449  00000-0 -13579-3 0  9992,2 52275  53.2159 220.2480 0001361  69.8532 290.2607 15.08844088 90775,6917.868,95.437,540.674,538.791,0.0
52275.0,STARLINK-3784,PAYLOAD,2023-12-04 16:03:04,15.08839595,0.0001455,53.2162,217.274,65.4314,294.6829,0.00025375,3.753e-05,0.0,0 STARLINK-3784,1 52275U 22041Q   23338.66879755  .00003753  00000-0  25375-3 0  9995,2 52275  53.2162 217.2740 0001455  65.4314 294.6829 15.08839595 89665,6917.882,95.438,540.753,538.74,0.0
52275.0,STARLINK-3784,PAYLOAD,2023-12-05 15:53:51,15.08845,0.0001662,53.216,212.8158,55.2914,304.8235,0.00020415,2.963e-05,0.0,0 STARLINK-3784,1 52275U 22041Q   23339.66239615  .00002963  00000-0  20415-3 0  9993,2 52275  53.2160 212.8158 0001662  55.2914 304.8235 15.08845000 89810,6917.865,95.437,540.88,538.58,0.0
52275.0,STARLINK-3784,PAYLOAD,2023-12-06 01:26:09,15.08842596,0.0001541,53.2161,211.0311,59.8464,300.2681,0.00014668,2.047e-05,0.0,0 STARLINK-3784,1 52275U 22041Q   23340.05983739  .00002047  00000-0  14668-3 0  9997,2 52275  53.2161 211.0311 0001541  59.8464 300.2681 15.08842596 91083,6917.872,95.437,540.803,538.671,0.0
52275.0,STARLINK-3784,PAYLOAD,2023-12-06 17:20:01,15.08834968,0.0001437,53.2158,208.0556,69.6583,290.4563,-1.923e-05,-5.94e-06,0.0,0 STARLINK-3784,1 52275U 22041Q   23340.72224251 -.00000594  00000-0 -19230-4 0  9996,2 52275  53.2158 208.0556 0001437  69.6583 290.4563 15.08834968 91185,6917.896,95.438,540.755,538.767,0.0
52275.0,STARLINK-3784,PAYLOAD,2023-12-07 14:00:02,15.08838116,0.0001488,53.2166,204.1876,69.6362,290.479,-9.4617e-06,-4.39e-06,0.0,0 STARLINK-3784,1 52275U 22041Q   23341.58335952 -.00000439  00000-0 -94617-5 0  9993,2 52275  53.2166 204.1876 0001488  69.6362 290.4790 15.08838116 90109,6917.886,95.438,540.781,538.722,0.0
52275.0,STARLINK-3784,PAYLOAD,2023-12-07 18:46:11,15.08839201,0.0001563,53.2167,203.296,68.6877,291.4282,9.3077e-06,-1.4e-06,0.0,0 STARLINK-3784,1 52275U 22041Q   23341.78207933 -.00000140  00000-0  93077-5 0  9999,2 52275  53.2167 203.2960 0001563  68.6877 291.4282 15.08839201 91348,6917.883,95.438,540.829,538.667,0.0
52275.0,STARLINK-3784,PAYLOAD,2023-12-09 16:52:22,15.08841126,0.0001542,53.2159,194.6732,73.9367,286.1794,1.862e-05,8e-08,0.0,0 STARLINK-3784,1 52275U 22041Q   23343.70303951  .00000008  00000-0  18620-4 0  9992,2 52275  53.2159 194.6732 0001542  73.9367 286.1794 15.08841126 91639,6917.877,95.437,540.809,538.675,0.0
52275.0,STARLINK-3784,PAYLOAD,2023-12-10 13:32:23,15.08842749,0.0002208,53.2131,190.8093,76.0819,284.0418,5.7733e-05,6.31e-06,0.0,0 STARLINK-3784,1 52275U 22041Q   23344.56416168  .00000631  00000-0  57733-4 0  9992,2 52275  53.2131 190.8093 0002208  76.0819 284.0418 15.08842749 90555,6917.872,95.437,541.264,538.21,0.0
52275.0,STARLINK-3784,PAYLOAD,2023-12-10 19:53:56,15.08837684,0.0001462,53.2151,189.6181,89.7254,270.3905,1.4443e-05,-5.8e-07,0.0,0 STARLINK-3784,1 52275U 22041Q   23344.82912392 -.00000058  00000-0  14443-4 0  9996,2 52275  53.2151 189.6181 0001462  89.7254 270.3905 15.08837684 91806,6917.887,95.438,540.764,538.741,0.0
52275.0,STARLINK-3784,PAYLOAD,2023-12-10 21:29:19,15.08838111,0.0001411,53.2151,189.3208,89.2536,270.8618,1.8414e-05,5e-08,0.0,0 STARLINK-3784,1 52275U 22041Q   23344.89536313  .00000005  00000-0  18414-4 0  9991,2 52275  53.2151 189.3208 0001411  89.2536 270.8618 15.08838111 90604,6917.886,95.438,540.727,538.775,0.0
52275.0,STARLINK-3784,PAYLOAD,2023-12-11 19:44:45,15.08822716,0.0001893,53.2149,185.1586,68.2844,291.8349,-0.00011218,-2.072e-05,0.0,0 STARLINK-3784,1 52275U 22041Q   23345.82274827 -.00002072  00000-0 -11218-3 0  9996,2 52275  53.2149 185.1586 0001893  68.2844 291.8349 15.08822716 91954,6917.933,95.439,541.108,538.489,0.0
